{"type": "FeatureCollection", "features": [ {"type": "Feature", "properties": {"norad_id": 60453, "name": "LEGION 4", "group": "resource", "lat": -15.31036227373036, "lon": -95.69428252709663, "alt_km": 519.6818736154846, "timestamp": "2025-12-07T18:50:16.382278+00:00", "meta": {"OBJECT_NAME": "LEGION 4", "OBJECT_ID": "2024-146B", "EPOCH": "2025-12-07T06:52:41.932416", "MEAN_MOTION": 15.15739143, "ECCENTRICITY": 0.00098997, "INCLINATION": 45.039, "RA_OF_ASC_NODE": 71.0991, "ARG_OF_PERICENTER": 282.4807, "MEAN_ANOMALY": 77.4964, "EPHEMERIS_TYPE": 0, "CLASSIFICATION_TYPE": "U", "NORAD_CAT_ID": 60453, "ELEMENT_SET_NO": 999, "REV_AT_EPOCH": 7175, "BSTAR": 0.00044031162, "MEAN_MOTION_DOT": 8.291e-05, "MEAN_MOTION_DDOT": 0}, "tle": {"line1": "1 60453U 24146B   25341.28659644  .00008291  00000+0  44031-3 0  9998", "line2": "2 60453  45.0390  71.0991 0009899 282.4807  77.4964 15.15739143 71750"}}, "geometry": {"type": "Point", "coordinates": [-95.69428252709663, -15.31036227373036]}}, {"type": "Feature", "properties": {"norad_id": 60989, "name": "SENTINEL-2C", "group": "resource", "lat": 55.10269223325881, "lon": 41.85539161240118, "alt_km": 783.1153126995268, "timestamp": "2025-12-07T18:50:16.382288+00:00", "meta": {"OBJECT_NAME": "SENTINEL-2C", "OBJECT_ID": "2024-157A", "EPOCH": "2025-12-07T03:28:19.104384", "MEAN_MOTION": 14.30814111, "ECCENTRICITY": 0.00011586, "INCLINATION": 98.5687, "RA_OF_ASC_NODE": 53.7075, "ARG_OF_PERICENTER": 98.7823, "MEAN_ANOMALY": 261.3491, "EPHEMERIS_TYPE": 0, "CLASSIFICATION_TYPE": "U", "NORAD_CAT_ID": 60989, "ELEMENT_SET_NO": 999, "REV_AT_EPOCH": 6552, "BSTAR": 0.00013332122, "MEAN_MOTION_DOT": 3.06e-06, "MEAN_MOTION_DDOT": 0}, "tle": {"line1": "1 60989U 24157A   25341.14466556  .00000306  00000+0  13332-3 0  9996", "line2": "2 60989  98.5687  53.7075 0001158  98.7823 261.3491 14.30814111 65524"}}, "geometry": {"type": "Point", "coordinates": [41.85539161240118, 55.10269223325881]}}, {"type": "Feature", "properties": {"norad_id": 61735, "name": "IONOSFERA-M 1", "group": "resource", "lat": 71.11780578671605, "lon": 58.40472409572963, "alt_km": 809.1212862082757, "timestamp": "2025-12-07T18:50:16.382299+00:00", "meta": {"OBJECT_NAME": "IONOSFERA-M 1", "OBJECT_ID": "2024-199A", "EPOCH": "2025-12-07T06:31:22.236960", "MEAN_MOTION": 14.22712198, "ECCENTRICITY": 0.00012276, "INCLINATION": 98.7415, "RA_OF_ASC_NODE": 211.1618, "ARG_OF_PERICENTER": 29.7046, "MEAN_ANOMALY": 330.4201, "EPHEMERIS_TYPE": 0, "CLASSIFICATION_TYPE": "U", "NORAD_CAT_ID": 61735, "ELEMENT_SET_NO": 999, "REV_AT_EPOCH": 10041, "BSTAR": 8.8357528e-05, "MEAN_MOTION_DOT": 1.54e-06, "MEAN_MOTION_DDOT": 0}, "tle": {"line1": "1 61735U 24199A   25341.27178515  .00000154  00000+0  88358-4 0  9993", "line2": "2 61735  98.7415 211.1618 0001227  29.7046 330.4201 14.22712198100414"}}, "geometry": {"type": "Point", "coordinates": [58.40472409572963, 71.11780578671605]}}, {"type": "Feature", "properties": {"norad_id": 61736, "name": "IONOSFERA-M 2", "group": "resource", "lat": -68.84347599113212, "lon": -124.99069466140426, "alt_km": 824.4993874057163, "timestamp": "2025-12-07T18:50:16.382309+00:00", "meta": {"OBJECT_NAME": "IONOSFERA-M 2", "OBJECT_ID": "2024-199B", "EPOCH": "2025-12-07T05:39:59.971392", "MEAN_MOTION": 14.22714345, "ECCENTRICITY": 0.00015007, "INCLINATION": 98.7413, "RA_OF_ASC_NODE": 211.039, "ARG_OF_PERICENTER": 117.1421, "MEAN_ANOMALY": 242.991, "EPHEMERIS_TYPE": 0, "CLASSIFICATION_TYPE": "U", "NORAD_CAT_ID": 61736, "ELEMENT_SET_NO": 999, "REV_AT_EPOCH": 10353, "BSTAR": 9.3766315e-05, "MEAN_MOTION_DOT": 1.66e-06, "MEAN_MOTION_DDOT": 0}, "tle": {"line1": "1 61736U 24199B   25341.23611078  .00000166  00000+0  93766-4 0  9998", "line2": "2 61736  98.7413 211.0390 0001500 117.1421 242.9910 14.22714345103538"}}, "geometry": {"type": "Point", "coordinates": [-124.99069466140426, -68.84347599113212]}}, {"type": "Feature", "properties": {"norad_id": 63772, "name": "BIOMASS", "group": "resource", "lat": 42.903333608374574, "lon": 159.28913408771507, "alt_km": 664.630665715109, "timestamp": "2025-12-07T18:50:16.382319+00:00", "meta": {"OBJECT_NAME": "BIOMASS", "OBJECT_ID": "2025-090A", "EPOCH": "2025-12-07T05:32:58.802496", "MEAN_MOTION": 14.67537255, "ECCENTRICITY": 0.00012591, "INCLINATION": 98.0701, "RA_OF_ASC_NODE": 166.3209, "ARG_OF_PERICENTER": 76.4322, "MEAN_ANOMALY": 283.7023, "EPHEMERIS_TYPE": 0, "CLASSIFICATION_TYPE": "U", "NORAD_CAT_ID": 63772, "ELEMENT_SET_NO": 999, "REV_AT_EPOCH": 3253, "BSTAR": 0.00058004787, "MEAN_MOTION_DOT": 3.242e-05, "MEAN_MOTION_DDOT": 0}, "tle": {"line1": "1 63772U 25090A   25341.23123614  .00003242  00000+0  58005-3 0  9999", "line2": "2 63772  98.0701 166.3209 0001259  76.4322 283.7023 14.67537255 32533"}}, "geometry": {"type": "Point", "coordinates": [159.28913408771507, 42.903333608374574]}}, {"type": "Feature", "properties": {"norad_id": 64694, "name": "GOSAT-GW (IBUKI GW)", "group": "resource", "lat": -70.91434291064, "lon": 73.26807467412448, "alt_km": 677.2075395390184, "timestamp": "2025-12-07T18:50:16.382329+00:00", "meta": {"OBJECT_NAME": "GOSAT-GW (IBUKI GW)", "OBJECT_ID": "2025-141A", "EPOCH": "2025-12-07T06:14:09.330144", "MEAN_MOTION": 14.67559319, "ECCENTRICITY": 0.00015196, "INCLINATION": 98.0424, "RA_OF_ASC_NODE": 276.872, "ARG_OF_PERICENTER": 83.4929, "MEAN_ANOMALY": 276.6449, "EPHEMERIS_TYPE": 0, "CLASSIFICATION_TYPE": "U", "NORAD_CAT_ID": 64694, "ELEMENT_SET_NO": 999, "REV_AT_EPOCH": 2369, "BSTAR": 0.00037302523, "MEAN_MOTION_DOT": 2.069e-05, "MEAN_MOTION_DDOT": 0}, "tle": {"line1": "1 64694U 25141A   25341.25983021  .00002069  00000+0  37303-3 0  9992", "line2": "2 64694  98.0424 276.8720 0001519  83.4929 276.6449 14.67559319 23699"}}, "geometry": {"type": "Point", "coordinates": [73.26807467412448, -70.91434291064]}}, {"type": "Feature", "properties": {"norad_id": 64876, "name": "IONOSFERA-M 3", "group": "resource", "lat": -3.6787593399242455, "lon": -55.65260602663259, "alt_km": 823.3172778660328, "timestamp": "2025-12-07T18:50:16.382339+00:00", "meta": {"OBJECT_NAME": "IONOSFERA-M 3", "OBJECT_ID": "2025-155A", "EPOCH": "2025-12-07T05:20:24.885600", "MEAN_MOTION": 14.2143895, "ECCENTRICITY": 0.0002352, "INCLINATION": 98.5776, "RA_OF_ASC_NODE": 303.245, "ARG_OF_PERICENTER": 68.7136, "MEAN_ANOMALY": 291.4292, "EPHEMERIS_TYPE": 0, "CLASSIFICATION_TYPE": "U", "NORAD_CAT_ID": 64876, "ELEMENT_SET_NO": 999, "REV_AT_EPOCH": 1913, "BSTAR": 0.00010309203, "MEAN_MOTION_DOT": 1.83e-06, "MEAN_MOTION_DDOT": 0}, "tle": {"line1": "1 64876U 25155A   25341.22251025  .00000183  00000+0  10309-3 0  9990", "line2": "2 64876  98.5776 303.2450 0002352  68.7136 291.4292 14.21438950 19135"}}, "geometry": {"type": "Point", "coordinates": [-55.65260602663259, -3.6787593399242455]}}, {"type": "Feature", "properties": {"norad_id": 64877, "name": "IONOSFERA-M 4", "group": "resource", "lat": 2.7735231181097055, "lon": 124.12994176616508, "alt_km": 823.4470197991577, "timestamp": "2025-12-07T18:50:16.382349+00:00", "meta": {"OBJECT_NAME": "IONOSFERA-M 4", "OBJECT_ID": "2025-155B", "EPOCH": "2025-12-07T06:10:54.950016", "MEAN_MOTION": 14.21440006, "ECCENTRICITY": 0.00017073, "INCLINATION": 98.5775, "RA_OF_ASC_NODE": 303.1987, "ARG_OF_PERICENTER": 69.1403, "MEAN_ANOMALY": 290.9957, "EPHEMERIS_TYPE": 0, "CLASSIFICATION_TYPE": "U", "NORAD_CAT_ID": 64877, "ELEMENT_SET_NO": 999, "REV_AT_EPOCH": 1913, "BSTAR": 9.6039267e-05, "MEAN_MOTION_DOT": 1.67e-06, "MEAN_MOTION_DDOT": 0}, "tle": {"line1": "1 64877U 25155B   25341.25758044  .00000167  00000+0  96039-4 0  9994", "line2": "2 64877  98.5775 303.1987 0001707  69.1403 290.9957 14.21440006 19131"}}, "geometry": {"type": "Point", "coordinates": [124.12994176616508, 2.7735231181097055]}}, {"type": "Feature", "properties": {"norad_id": 64899, "name": "MICROCARB", "group": "resource", "lat": 29.26527712015198, "lon": -118.26873995688837, "alt_km": 641.5200335940799, "timestamp": "2025-12-07T18:50:16.382359+00:00", "meta": {"OBJECT_NAME": "MICROCARB", "OBJECT_ID": "2025-156A", "EPOCH": "2025-12-07T03:28:30.166176", "MEAN_MOTION": 14.72042923, "ECCENTRICITY": 0.00167732, "INCLINATION": 98.0029, "RA_OF_ASC_NODE": 56.5797, "ARG_OF_PERICENTER": 162.0264, "MEAN_ANOMALY": 198.154, "EPHEMERIS_TYPE": 0, "CLASSIFICATION_TYPE": "U", "NORAD_CAT_ID": 64899, "ELEMENT_SET_NO": 999, "REV_AT_EPOCH": 1971, "BSTAR": 0.00022598184, "MEAN_MOTION_DOT": 1.373e-05, "MEAN_MOTION_DDOT": 0}, "tle": {"line1": "1 64899U 25156A   25341.14479359  .00001373  00000+0  22598-3 0  9994", "line2": "2 64899  98.0029  56.5797 0016773 162.0264 198.1540 14.72042923 19710"}}, "geometry": {"type": "Point", "coordinates": [-118.26873995688837, 29.26527712015198]}}, {"type": "Feature", "properties": {"norad_id": 64900, "name": "CO3D 3", "group": "resource", "lat": 53.75849076807556, "lon": 47.96192678450964, "alt_km": 499.66290331242726, "timestamp": "2025-12-07T18:50:16.382369+00:00", "meta": {"OBJECT_NAME": "CO3D 3", "OBJECT_ID": "2025-156B", "EPOCH": "2025-12-07T04:22:54.120576", "MEAN_MOTION": 15.20207661, "ECCENTRICITY": 0.00013063, "INCLINATION": 97.4344, "RA_OF_ASC_NODE": 57.6298, "ARG_OF_PERICENTER": 113.3886, "MEAN_ANOMALY": 246.7487, "EPHEMERIS_TYPE": 0, "CLASSIFICATION_TYPE": "U", "NORAD_CAT_ID": 64900, "ELEMENT_SET_NO": 999, "REV_AT_EPOCH": 2036, "BSTAR": 0.00046423425, "MEAN_MOTION_DOT": 9.997e-05, "MEAN_MOTION_DDOT": 0}, "tle": {"line1": "1 64900U 25156B   25341.18257084  .00009997  00000+0  46423-3 0  9993", "line2": "2 64900  97.4344  57.6298 0001306 113.3886 246.7487 15.20207661 20368"}}, "geometry": {"type": "Point", "coordinates": [47.96192678450964, 53.75849076807556]}}]}